[Satellite]
VERSION=1.1
NAME=STARLINK-1180
NICKNAME=STARLINK-1180
TLE1=1 45076U 20006AJ  20058.91667824  .00309828  00000-0  21351-2 0  9992
TLE2=2 45076  52.9956  89.6224 0003586 329.6371 358.4271 15.73152954  4987
STATUS=0
